      2.10          N: GNSS NAV DATA                        RINEX VERSION / TYPE
fic2rin                                 06/18/2023 00:18:12 PGM / RUN BY / DATE
                                                            END OF HEADER
24 23  6 17 10  0  0.0 -.227767042816D-03 -.130739863380D-10  .000000000000D+00
     .190000000000D+02 -.128437500000D+02  .554915971620D-08 -.121644360635D+01
    -.426545739174D-06  .139453817392D-01  .539049506187D-05  .515363829231D+04
     .554400000000D+06  .309199094772D-06 -.123188797923D+01  .184401869774D-06
     .933469965194D+00  .257468750000D+03  .896857836266D+00 -.834606193269D-08
    -.231081054025D-09  .100000000000D+01  .226600000000D+04  .000000000000D+00
     .240000000000D+01  .000000000000D+00  .279396772385D-08  .190000000000D+02
     .547200000000D+06  .400000000000D+01
21 23  6 17 10  0  0.0  .153032597154D-03 -.341060513165D-12  .000000000000D+00
     .310000000000D+02 -.714687500000D+02  .474841207614D-08  .629133291824D+00
    -.441819429398D-05  .246474929154D-01  .538304448128D-06  .515360950661D+04
     .554400000000D+06  .275671482086D-06  .191213682395D+01 -.372529029846D-06
     .961566055920D+00  .368906250000D+03 -.748197875570D+00 -.872572060414D-08
    -.338585532018D-09  .100000000000D+01  .226600000000D+04  .000000000000D+00
     .240000000000D+01  .000000000000D+00 -.102445483208D-07  .310000000000D+02
     .547200000000D+06  .400000000000D+01
20 23  6 17 10  0  0.0  .427545979619D-03 -.204636307899D-11  .000000000000D+00
     .250000000000D+02 -.109687500000D+03  .441446959466D-08 -.702494256448D+00
    -.576488673687D-05  .403808953706D-02  .926852226257D-05  .515356848907D+04
     .554400000000D+06  .171363353729D-06  .287713851079D+01 -.167638063431D-07
     .949189173562D+00  .195187500000D+03 -.287979557671D+01 -.795425989828D-08
     .225009372544D-10  .100000000000D+01  .226600000000D+04  .000000000000D+00
     .240000000000D+01  .000000000000D+00 -.838190317154D-08  .250000000000D+02
     .547200000000D+06  .400000000000D+01
12 23  6 17 10  0  0.0 -.389642082155D-03 -.466116034659D-11  .000000000000D+00
     .630000000000D+02  .956562500000D+02  .425946313802D-08 -.290365218644D+01
     .503472983837D-05  .874526205007D-02  .994466245174D-05  .515359590340D+04
     .554400000000D+06  .238418579102D-06 -.262211271409D-01 -.260770320892D-07
     .965639083178D+00  .188968750000D+03  .138065928554D+01 -.759031616714D-08
    -.231081054025D-09  .100000000000D+01  .226600000000D+04  .000000000000D+00
     .240000000000D+01  .000000000000D+00 -.125728547573D-07  .630000000000D+02
     .547200000000D+06  .400000000000D+01
8  23  6 17 10  0  0.0 -.127809587866D-03 -.181898940355D-11  .000000000000D+00
     .570000000000D+02  .124281250000D+03  .468733810359D-08  .659274142649D+00
     .660121440887D-05  .845200277399D-02  .300630927086D-05  .515371477127D+04
     .554400000000D+06  .372529029846D-07  .923330658462D+00  .670552253723D-07
     .958443784974D+00  .314000000000D+03  .270656638964D+00 -.839534970001D-08
     .267868300647D-10  .100000000000D+01  .226600000000D+04  .000000000000D+00
     .240000000000D+01  .000000000000D+00  .512227416039D-08  .570000000000D+02
     .547200000000D+06  .400000000000D+01
7  23  6 17 10  0  0.0  .150014646351D-03 -.101181285572D-10  .000000000000D+00
     .770000000000D+02 -.204375000000D+02  .507771150707D-08 -.217728554269D+01
    -.129826366901D-05  .174303221283D-01  .556744635105D-05  .515373466492D+04
     .554400000000D+06  .253319740295D-06 -.114081854486D+01 -.204890966415D-07
     .949921751734D+00  .259781250000D+03 -.218824098216D+01 -.795175979414D-08
    -.109647424398D-09  .100000000000D+01  .226600000000D+04  .000000000000D+00
     .240000000000D+01  .000000000000D+00 -.111758708954D-07  .770000000000D+02
     .547200000000D+06  .400000000000D+01
4  23  6 17 10  0  0.0  .706603750587D-04  .103455022327D-10  .000000000000D+00
     .166000000000D+03  .105000000000D+02  .454340353671D-08  .206892971386D+00
     .646337866783D-06  .239884806797D-02  .719912350178D-05  .515365217018D+04
     .554400000000D+06  .763684511185D-07 -.215614495595D+01  .000000000000D+00
     .962726736587D+00  .242437500000D+03 -.298165532514D+01 -.788425698238D-08
     .662170439200D-09  .100000000000D+01  .226600000000D+04  .000000000000D+00
     .240000000000D+01  .000000000000D+00 -.465661287308D-08  .166000000000D+03
     .547200000000D+06  .400000000000D+01
26 23  6 17 10  0  0.0  .238843262196D-03 -.909494701773D-12  .000000000000D+00
     .270000000000D+02  .754062500000D+02  .497413576415D-08  .249618185266D+01
     .385753810406D-05  .792421260849D-02  .111497938633D-04  .515370958328D+04
     .554400000000D+06 -.184401869774D-06 -.164750884844D+00 -.115483999252D-06
     .934056270576D+00  .149781250000D+03  .464237746326D+00 -.789068582159D-08
    -.376801409577D-09  .100000000000D+01  .226600000000D+04  .000000000000D+00
     .240000000000D+01  .000000000000D+00  .698491930962D-08  .270000000000D+02
     .547200000000D+06  .400000000000D+01
32 23  6 17 10  0  0.0 -.502082984895D-03 -.841282599140D-11  .000000000000D+00
     .106000000000D+03  .556250000000D+01  .464912222603D-08  .129894429797D+01
     .264495611191D-06  .693316303659D-02  .711716711521D-05  .515375015640D+04
     .554400000000D+06 -.113621354103D-06 -.219974958753D+01  .502914190292D-07
     .959683085784D+00  .237812500000D+03 -.220006058929D+01 -.798711840983D-08
     .598596362513D-09  .100000000000D+01  .226600000000D+04  .000000000000D+00
     .240000000000D+01  .000000000000D+00  .465661287308D-09  .106000000000D+03
     .547200000000D+06  .400000000000D+01
16 23  6 17 10  0  0.0 -.490591395646D-03  .386535248253D-11  .000000000000D+00
     .104000000000D+03  .926562500000D+02  .430089343519D-08  .158346041947D+01
     .490434467793D-05  .132988316473D-01  .112615525723D-04  .515362162018D+04
     .554400000000D+06 -.337138772011D-06 -.799375304047D-02  .113621354103D-06
     .965322498928D+00  .168312500000D+03  .789969040696D+00 -.782282585210D-08
    -.338585532018D-09  .100000000000D+01  .226600000000D+04  .000000000000D+00
     .340000000000D+01  .000000000000D+00 -.102445483208D-07  .104000000000D+03
     .547200000000D+06  .400000000000D+01
9  23  6 17 10  0  0.0 -.133758410811D-03  .886757334229D-11  .000000000000D+00
     .620000000000D+02  .100937500000D+02  .464126475588D-08  .111949649630D+01
     .610947608948D-06  .240103900433D-02  .733882188797D-05  .515359268761D+04
     .554400000000D+06  .000000000000D+00 -.221300521406D+01 -.100582838058D-06
     .956086399282D+00  .234187500000D+03  .194180142325D+01 -.796926052312D-08
     .695386108480D-09  .100000000000D+01  .226600000000D+04  .000000000000D+00
     .240000000000D+01  .000000000000D+00  .931322574615D-09  .620000000000D+02
     .547200000000D+06  .400000000000D+01
27 23  6 17 10  0  0.0  .147945247591D-04 -.761701812735D-11  .000000000000D+00
     .870000000000D+02  .121875000000D+03  .451054502516D-08  .691297264334D+00
     .655092298985D-05  .115461569512D-01  .325031578541D-05  .515367248344D+04
     .554400000000D+06 -.689178705215D-07  .946854720574D+00  .987201929092D-07
     .967324554985D+00  .317093750000D+03  .742557883111D+00 -.840356432790D-08
     .178578867098D-10  .100000000000D+01  .226600000000D+04  .000000000000D+00
     .340000000000D+01  .000000000000D+00  .186264514923D-08  .870000000000D+02
     .547200000000D+06  .400000000000D+01
15 23  6 17 10  0  0.0  .496492721140D-04  .352429196937D-11  .000000000000D+00
     .730000000000D+02  .125000000000D+02  .526807657939D-08 -.298115791251D+00
     .769272446632D-06  .149801197695D-01  .785104930401D-05  .515373117638D+04
     .554400000000D+06 -.102445483208D-06 -.233192327193D+01  .217929482460D-06
     .932557505152D+00  .217375000000D+03  .120420633612D+01 -.848499629130D-08
     .716101257063D-09  .100000000000D+01  .226600000000D+04  .000000000000D+00
     .240000000000D+01  .000000000000D+00 -.107102096081D-07  .730000000000D+02
     .547200000000D+06  .400000000000D+01
19 23  6 17 10  0  0.0  .331737101078D-03  .511590769747D-11  .000000000000D+00
     .550000000000D+02  .102250000000D+03  .431017953628D-08  .278233892059D+01
     .540725886822D-05  .947913457640D-02  .213272869587D-05  .515363369560D+04
     .554400000000D+06  .968575477600D-07  .105724429959D+01  .245869159698D-06
     .973003911644D+00  .345281250000D+03  .232664560771D+01 -.807390773924D-08
     .625026034843D-10  .100000000000D+01  .226600000000D+04  .000000000000D+00
     .240000000000D+01  .000000000000D+00 -.153668224812D-07  .550000000000D+02
     .547200000000D+06  .400000000000D+01
17 23  6 17 10  0  0.0  .718635972589D-03  .125055521494D-11  .000000000000D+00
     .600000000000D+02  .971250000000D+02  .435482425305D-08  .595197583226D+00
     .501796603203D-05  .135084954090D-01  .308640301228D-05  .515378458405D+04
     .554400000000D+06 -.169500708580D-06  .101271192194D+01 -.651925802231D-07
     .973965789059D+00  .331593750000D+03 -.140577061377D+01 -.837784897104D-08
     .564309220030D-10  .100000000000D+01  .226600000000D+04  .000000000000D+00
     .240000000000D+01  .000000000000D+00 -.111758708954D-07  .600000000000D+02
     .547200000000D+06  .400000000000D+01
13 23  6 17 10  0  0.0  .535154249519D-03  .511590769747D-11  .000000000000D+00
     .920000000000D+02  .161875000000D+02  .457983362560D-08  .290198136283D+00
     .745058059692D-06  .705205602571D-02  .639818608761D-05  .515366137123D+04
     .554400000000D+06 -.447034835815D-07 -.205238826068D+01  .931322574615D-07
     .969612105356D+00  .263687500000D+03  .907202053933D+00 -.799319009131D-08
     .502163774280D-09  .100000000000D+01  .226600000000D+04  .000000000000D+00
     .240000000000D+01  .000000000000D+00 -.111758708954D-07  .920000000000D+02
     .547200000000D+06  .400000000000D+01
